IRIDIUM 57              
1 25273U 98019B   24117.83228747  .00000875  00000+0  29955-3 0  9994
2 25273  86.3934 319.6486 0002151  87.4145 272.7298 14.35171680365051
IRIDIUM 63              
1 25286U 98021B   24117.66649887  .00001368  00000+0  46719-3 0  9999
2 25286  86.3966 256.5869 0002081  97.8224 262.3209 14.35712062364061
IRIDIUM 69              
1 25319U 98026A   24117.67765115  .00001658  00000+0  52139-3 0  9990
2 25319  86.3938 271.1343 0001654  17.2389 342.8865 14.39924981363105
IRIDIUM 71              
1 25320U 98026B   24117.48053969  .00001533  00000+0  47847-3 0  9990
2 25320  86.3942 265.9853 0003458  55.5370 304.6156 14.40245847363599
IRIDIUM 73              
1 25344U 98032C   24117.70068855  .00001839  00000+0  46555-3 0  9992
2 25344  86.4466 223.3967 0001825  81.8131 278.3281 14.50463930370167
IRIDIUM 82              
1 25467U 98051A   24117.56713967  .00022098  00000+0  11423-2 0  9999
2 25467  86.3715 310.2512 0132533  50.9074 310.3861 15.08728686360701
IRIDIUM 2               
1 25527U 98066A   24117.85719883  .00204785  00000+0  16667-2 0  9997
2 25527  85.5058 336.5869 0004225 133.6352 226.5268 15.70046275399829
